{
    "links": {
        "self": "http://www.neowsapp.com/rest/v1/neo/3760955?api_key=iIulBulltgU6a56xZRHN4H3l9WmuAYTsLGpBGhQ2"
    },
    "id": "3760955",
    "neo_reference_id": "3760955",
    "name": "(2016 TF56)",
    "designation": "2016 TF56",
    "nasa_jpl_url": "http://ssd.jpl.nasa.gov/sbdb.cgi?sstr=3760955",
    "absolute_magnitude_h": 23.4,
    "estimated_diameter": {
        "kilometers": {
            "estimated_diameter_min": 0.0555334912,
            "estimated_diameter_max": 0.1241766613
        },
        "meters": {
            "estimated_diameter_min": 55.5334911581,
            "estimated_diameter_max": 124.1766612574
        },
        "miles": {
            "estimated_diameter_min": 0.0345069009,
            "estimated_diameter_max": 0.0771597762
        },
        "feet": {
            "estimated_diameter_min": 182.1964991311,
            "estimated_diameter_max": 407.4037573197
        }
    },
    "is_potentially_hazardous_asteroid": false,
    "close_approach_data": [
        {
            "close_approach_date": "2016-09-28",
            "close_approach_date_full": "2016-Sep-28 11:38",
            "epoch_date_close_approach": 1475062680000,
            "relative_velocity": {
                "kilometers_per_second": "7.5519308586",
                "kilometers_per_hour": "27186.9510911135",
                "miles_per_hour": "16892.9141376977"
            },
            "miss_distance": {
                "astronomical": "0.1678392242",
                "lunar": "65.2894582138",
                "kilometers": "25108390.442772454",
                "miles": "15601630.3639257052"
            },
            "orbiting_body": "Earth"
        }
    ],
    "orbital_data": {
        "orbit_id": "6",
        "orbit_determination_date": "2017-04-06 08:23:04",
        "first_observation_date": "2016-10-10",
        "last_observation_date": "2016-11-10",
        "data_arc_in_days": 31,
        "observations_used": 22,
        "orbit_uncertainty": "8",
        "minimum_orbit_intersection": ".167648",
        "jupiter_tisserand_invariant": "3.211",
        "epoch_osculation": "2457679.5",
        "eccentricity": ".5577824505201877",
        "semi_major_axis": "2.506245667951589",
        "inclination": "9.827621382353414",
        "ascending_node_longitude": "225.3721075647856",
        "orbital_period": "1449.218554776206",
        "perihelion_distance": "1.108305817675947",
        "perihelion_argument": "124.8525821521055",
        "aphelion_distance": "3.904185518227231",
        "perihelion_time": "2457645.114251510046",
        "mean_anomaly": "8.541754737811118",
        "mean_motion": ".2484097369672393",
        "equinox": "J2000",
        "orbit_class": {
            "orbit_class_type": "AMO",
            "orbit_class_description": "Near-Earth asteroid orbits similar to that of 1221 Amor",
            "orbit_class_range": "1.017 AU < q (perihelion) < 1.3 AU"
        }
    },
    "is_sentry_object": false
}